{"type": "FeatureCollection", "features": [ {"type": "Feature", "properties": {"norad_id": 66607, "name": "STARLINK-35993", "group": "last-30-days", "lat": 11.68514534112202, "lon": -134.49098827710952, "alt_km": 395.7176085010433, "timestamp": "2025-12-09T07:41:31.973370+00:00", "meta": {"OBJECT_NAME": "STARLINK-35993", "OBJECT_ID": "2025-270V", "EPOCH": "2025-12-08T22:00:03.000096", "MEAN_MOTION": 15.58500954, "ECCENTRICITY": 0.00014987, "INCLINATION": 42.9991, "RA_OF_ASC_NODE": 215.0727, "ARG_OF_PERICENTER": 261.5613, "MEAN_ANOMALY": 8.7742, "EPHEMERIS_TYPE": 0, "CLASSIFICATION_TYPE": "U", "NORAD_CAT_ID": 66607, "ELEMENT_SET_NO": 999, "REV_AT_EPOCH": 368, "BSTAR": -0.029523842, "MEAN_MOTION_DOT": -0.02066944, "MEAN_MOTION_DDOT": 0}, "tle": {"line1": "1 66607U 25270V   25342.91670139 -.02066944  00000+0 -29524-1 0  9998", "line2": "2 66607  42.9991 215.0727 0001498 261.5613   8.7742 15.58500954  3688"}}, "geometry": {"type": "Point", "coordinates": [-134.49098827710952, 11.68514534112202]}}, {"type": "Feature", "properties": {"norad_id": 66608, "name": "STARLINK-36036", "group": "last-30-days", "lat": 14.217878094784728, "lon": -131.5470656752313, "alt_km": 395.5070847877878, "timestamp": "2025-12-09T07:41:31.973380+00:00", "meta": {"OBJECT_NAME": "STARLINK-36036", "OBJECT_ID": "2025-270W", "EPOCH": "2025-12-08T22:00:03.000096", "MEAN_MOTION": 15.5850082, "ECCENTRICITY": 0.00015073, "INCLINATION": 42.9989, "RA_OF_ASC_NODE": 215.0623, "ARG_OF_PERICENTER": 256.91, "MEAN_ANOMALY": 17.2567, "EPHEMERIS_TYPE": 0, "CLASSIFICATION_TYPE": "U", "NORAD_CAT_ID": 66608, "ELEMENT_SET_NO": 999, "REV_AT_EPOCH": 362, "BSTAR": -0.0294658, "MEAN_MOTION_DOT": -0.02063313, "MEAN_MOTION_DDOT": 0}, "tle": {"line1": "1 66608U 25270W   25342.91670139 -.02063313  00000+0 -29466-1 0  9991", "line2": "2 66608  42.9989 215.0623 0001507 256.9100  17.2567 15.58500820  3627"}}, "geometry": {"type": "Point", "coordinates": [-131.5470656752313, 14.217878094784728]}}, {"type": "Feature", "properties": {"norad_id": 66609, "name": "STARLINK-36034", "group": "last-30-days", "lat": 15.472048904738175, "lon": -130.04814149474583, "alt_km": 395.26015136028127, "timestamp": "2025-12-09T07:41:31.973392+00:00", "meta": {"OBJECT_NAME": "STARLINK-36034", "OBJECT_ID": "2025-270X", "EPOCH": "2025-12-08T22:00:03.000096", "MEAN_MOTION": 15.58503697, "ECCENTRICITY": 0.00014812, "INCLINATION": 42.9989, "RA_OF_ASC_NODE": 215.0585, "ARG_OF_PERICENTER": 260.9578, "MEAN_ANOMALY": 15.127, "EPHEMERIS_TYPE": 0, "CLASSIFICATION_TYPE": "U", "NORAD_CAT_ID": 66609, "ELEMENT_SET_NO": 999, "REV_AT_EPOCH": 362, "BSTAR": -0.029569857, "MEAN_MOTION_DOT": -0.02070001, "MEAN_MOTION_DDOT": 0}, "tle": {"line1": "1 66609U 25270X   25342.91670139 -.02070001  00000+0 -29570-1 0  9990", "line2": "2 66609  42.9989 215.0585 0001481 260.9578  15.1270 15.58503697  3623"}}, "geometry": {"type": "Point", "coordinates": [-130.04814149474583, 15.472048904738175]}}, {"type": "Feature", "properties": {"norad_id": 66610, "name": "STARLINK-35680", "group": "last-30-days", "lat": 16.71621872594138, "lon": -128.53221286646414, "alt_km": 395.02742259131264, "timestamp": "2025-12-09T07:41:31.973402+00:00", "meta": {"OBJECT_NAME": "STARLINK-35680", "OBJECT_ID": "2025-270Y", "EPOCH": "2025-12-08T22:00:03.000096", "MEAN_MOTION": 15.58497017, "ECCENTRICITY": 0.00015105, "INCLINATION": 42.999, "RA_OF_ASC_NODE": 215.0532, "ARG_OF_PERICENTER": 264.6949, "MEAN_ANOMALY": 13.3115, "EPHEMERIS_TYPE": 0, "CLASSIFICATION_TYPE": "U", "NORAD_CAT_ID": 66610, "ELEMENT_SET_NO": 999, "REV_AT_EPOCH": 389, "BSTAR": -0.029451399, "MEAN_MOTION_DOT": -0.02062147, "MEAN_MOTION_DDOT": 0}, "tle": {"line1": "1 66610U 25270Y   25342.91670139 -.02062147  00000+0 -29451-1 0  9992", "line2": "2 66610  42.9990 215.0532 0001510 264.6949  13.3115 15.58497017  3890"}}, "geometry": {"type": "Point", "coordinates": [-128.53221286646414, 16.71621872594138]}}, {"type": "Feature", "properties": {"norad_id": 66611, "name": "STARLINK-35583", "group": "last-30-days", "lat": 17.94674841522556, "lon": -126.99892786951011, "alt_km": 394.98236295521747, "timestamp": "2025-12-09T07:41:31.973412+00:00", "meta": {"OBJECT_NAME": "STARLINK-35583", "OBJECT_ID": "2025-270Z", "EPOCH": "2025-12-08T22:00:03.000096", "MEAN_MOTION": 15.5850005, "ECCENTRICITY": 0.00014955, "INCLINATION": 42.9991, "RA_OF_ASC_NODE": 215.0484, "ARG_OF_PERICENTER": 259.1052, "MEAN_ANOMALY": 20.8134, "EPHEMERIS_TYPE": 0, "CLASSIFICATION_TYPE": "U", "NORAD_CAT_ID": 66611, "ELEMENT_SET_NO": 999, "REV_AT_EPOCH": 389, "BSTAR": -0.029462453, "MEAN_MOTION_DOT": -0.02063041, "MEAN_MOTION_DDOT": 0}, "tle": {"line1": "1 66611U 25270Z   25342.91670139 -.02063041  00000+0 -29462-1 0  9999", "line2": "2 66611  42.9991 215.0484 0001495 259.1052  20.8134 15.58500050  3890"}}, "geometry": {"type": "Point", "coordinates": [-126.99892786951011, 17.94674841522556]}}, {"type": "Feature", "properties": {"norad_id": 66612, "name": "STARLINK-36039", "group": "last-30-days", "lat": 19.16619373023607, "lon": -125.44308274885718, "alt_km": 394.8308980418451, "timestamp": "2025-12-09T07:41:31.973422+00:00", "meta": {"OBJECT_NAME": "STARLINK-36039", "OBJECT_ID": "2025-270AA", "EPOCH": "2025-12-08T22:00:03.000096", "MEAN_MOTION": 15.58499464, "ECCENTRICITY": 0.00014629, "INCLINATION": 42.9991, "RA_OF_ASC_NODE": 215.0431, "ARG_OF_PERICENTER": 258.2561, "MEAN_ANOMALY": 23.5811, "EPHEMERIS_TYPE": 0, "CLASSIFICATION_TYPE": "U", "NORAD_CAT_ID": 66612, "ELEMENT_SET_NO": 999, "REV_AT_EPOCH": 378, "BSTAR": -0.02947825, "MEAN_MOTION_DOT": -0.02063966, "MEAN_MOTION_DDOT": 0}, "tle": {"line1": "1 66612U 25270AA  25342.91670139 -.02063966  00000+0 -29478-1 0  9993", "line2": "2 66612  42.9991 215.0431 0001462 258.2561  23.5811 15.58499464  3788"}}, "geometry": {"type": "Point", "coordinates": [-125.44308274885718, 19.16619373023607]}}, {"type": "Feature", "properties": {"norad_id": 66613, "name": "STARLINK-36037", "group": "last-30-days", "lat": 20.372699445815293, "lon": -123.86280893337408, "alt_km": 394.6573387995577, "timestamp": "2025-12-09T07:41:31.973432+00:00", "meta": {"OBJECT_NAME": "STARLINK-36037", "OBJECT_ID": "2025-270AB", "EPOCH": "2025-12-08T22:00:03.000096", "MEAN_MOTION": 15.58500023, "ECCENTRICITY": 0.0001474, "INCLINATION": 42.9991, "RA_OF_ASC_NODE": 215.0385, "ARG_OF_PERICENTER": 259.0704, "MEAN_ANOMALY": 24.6823, "EPHEMERIS_TYPE": 0, "CLASSIFICATION_TYPE": "U", "NORAD_CAT_ID": 66613, "ELEMENT_SET_NO": 999, "REV_AT_EPOCH": 378, "BSTAR": -0.029464102, "MEAN_MOTION_DOT": -0.02063128, "MEAN_MOTION_DDOT": 0}, "tle": {"line1": "1 66613U 25270AB  25342.91670139 -.02063128  00000+0 -29464-1 0  9999", "line2": "2 66613  42.9991 215.0385 0001474 259.0704  24.6823 15.58500023  3787"}}, "geometry": {"type": "Point", "coordinates": [-123.86280893337408, 20.372699445815293]}}, {"type": "Feature", "properties": {"norad_id": 66614, "name": "STARLINK-36040", "group": "last-30-days", "lat": 22.742219276737163, "lon": -120.6250682502771, "alt_km": 394.2823212974963, "timestamp": "2025-12-09T07:41:31.973444+00:00", "meta": {"OBJECT_NAME": "STARLINK-36040", "OBJECT_ID": "2025-270AC", "EPOCH": "2025-12-08T22:00:03.000096", "MEAN_MOTION": 15.58502142, "ECCENTRICITY": 0.00014988, "INCLINATION": 42.999, "RA_OF_ASC_NODE": 215.0284, "ARG_OF_PERICENTER": 263.0568, "MEAN_ANOMALY": 24.5315, "EPHEMERIS_TYPE": 0, "CLASSIFICATION_TYPE": "U", "NORAD_CAT_ID": 66614, "ELEMENT_SET_NO": 999, "REV_AT_EPOCH": 362, "BSTAR": -0.029542063, "MEAN_MOTION_DOT": -0.02068167, "MEAN_MOTION_DDOT": 0}, "tle": {"line1": "1 66614U 25270AC  25342.91670139 -.02068167  00000+0 -29542-1 0  9995", "line2": "2 66614  42.9990 215.0284 0001498 263.0568  24.5315 15.58502142  3626"}}, "geometry": {"type": "Point", "coordinates": [-120.6250682502771, 22.742219276737163]}}, {"type": "Feature", "properties": {"norad_id": 66615, "name": "STARLINK-35988", "group": "last-30-days", "lat": 21.565099250579348, "lon": -122.25702765195834, "alt_km": 394.50997323803404, "timestamp": "2025-12-09T07:41:31.973454+00:00", "meta": {"OBJECT_NAME": "STARLINK-35988", "OBJECT_ID": "2025-270AD", "EPOCH": "2025-12-08T22:00:03.000096", "MEAN_MOTION": 15.58502562, "ECCENTRICITY": 0.00015081, "INCLINATION": 42.999, "RA_OF_ASC_NODE": 215.0339, "ARG_OF_PERICENTER": 259.7255, "MEAN_ANOMALY": 25.9447, "EPHEMERIS_TYPE": 0, "CLASSIFICATION_TYPE": "U", "NORAD_CAT_ID": 66615, "ELEMENT_SET_NO": 999, "REV_AT_EPOCH": 362, "BSTAR": -0.029547407, "MEAN_MOTION_DOT": -0.02068536, "MEAN_MOTION_DDOT": 0}, "tle": {"line1": "1 66615U 25270AD  25342.91670139 -.02068536  00000+0 -29547-1 0  9991", "line2": "2 66615  42.9990 215.0339 0001508 259.7255  25.9447 15.58502562  3622"}}, "geometry": {"type": "Point", "coordinates": [-122.25702765195834, 21.565099250579348]}}, {"type": "Feature", "properties": {"norad_id": 66616, "name": "STARLINK-35391", "group": "last-30-days", "lat": 23.901495387232924, "lon": -118.96493433309885, "alt_km": 394.17985238343135, "timestamp": "2025-12-09T07:41:31.973467+00:00", "meta": {"OBJECT_NAME": "STARLINK-35391", "OBJECT_ID": "2025-270AE", "EPOCH": "2025-12-08T22:00:03.000096", "MEAN_MOTION": 15.58498824, "ECCENTRICITY": 0.00015864, "INCLINATION": 42.999, "RA_OF_ASC_NODE": 215.0241, "ARG_OF_PERICENTER": 262.738, "MEAN_ANOMALY": 26.7695, "EPHEMERIS_TYPE": 0, "CLASSIFICATION_TYPE": "U", "NORAD_CAT_ID": 66616, "ELEMENT_SET_NO": 999, "REV_AT_EPOCH": 389, "BSTAR": -0.029500622, "MEAN_MOTION_DOT": -0.02065402, "MEAN_MOTION_DDOT": 0}, "tle": {"line1": "1 66616U 25270AE  25342.91670139 -.02065402  00000+0 -29501-1 0  9991", "line2": "2 66616  42.9990 215.0241 0001586 262.7380  26.7695 15.58498824  3892"}}, "geometry": {"type": "Point", "coordinates": [-118.96493433309885, 23.901495387232924]}}]}